{
  "type": "FeatureCollection",
  "features": [
    {
      "type": "Feature",
      "properties": {
        "norad_id": 29486,
        "name": "GPS BIIRM-2 (PRN 31)",
        "group": "gps-ops",
        "lat": -31.041853245539077,
        "lon": 3.749486515762848,
        "alt_km": 20464.577468889966,
        "timestamp": "2025-12-18T19:29:52.803125+00:00",
        "meta_object_name": "GPS BIIRM-2 (PRN 31)",
        "meta_object_id": "2006-042A",
        "meta_epoch": "2025-12-16T18:24:54.505728",
        "meta_mean_motion": 2.00554045,
        "meta_eccentricity": 0.01073341,
        "meta_inclination": 54.6946,
        "meta_ra_of_asc_node": 158.5809,
        "meta_arg_of_pericenter": 52.0567,
        "meta_mean_anomaly": 130.2096,
        "meta_ephemeris_type": 0,
        "meta_classification_type": "U",
        "meta_norad_cat_id": 29486,
        "meta_element_set_no": 999,
        "meta_rev_at_epoch": 14073,
        "meta_bstar": 0,
        "meta_mean_motion_dot": 8.7e-07,
        "meta_mean_motion_ddot": 0,
        "tle_line1": "1 29486U 06042A   25350.76729752  .00000087  00000+0  00000+0 0  9994",
        "tle_line2": "2 29486  54.6946 158.5809 0107334  52.0567 130.2096  2.00554045140735"
      },
      "geometry": {
        "type": "Point",
        "coordinates": [
          3.749486515762848,
          -31.041853245539077
        ]
      }
    },
    {
      "type": "Feature",
      "properties": {
        "norad_id": 29601,
        "name": "GPS BIIRM-3 (PRN 12)",
        "group": "gps-ops",
        "lat": -54.40632668616706,
        "lon": 142.78926414629888,
        "alt_km": 20416.7329646993,
        "timestamp": "2025-12-18T19:29:52.803137+00:00",
        "meta_object_name": "GPS BIIRM-3 (PRN 12)",
        "meta_object_id": "2006-052A",
        "meta_epoch": "2025-12-17T22:21:49.009536",
        "meta_mean_motion": 2.00574024,
        "meta_eccentricity": 0.00876985,
        "meta_inclination": 54.9696,
        "meta_ra_of_asc_node": 221.1922,
        "meta_arg_of_pericenter": 87.4131,
        "meta_mean_anomaly": 273.6858,
        "meta_ephemeris_type": 0,
        "meta_classification_type": "U",
        "meta_norad_cat_id": 29601,
        "meta_element_set_no": 999,
        "meta_rev_at_epoch": 13977,
        "meta_bstar": 0,
        "meta_mean_motion_dot": 7.5e-07,
        "meta_mean_motion_ddot": 0,
        "tle_line1": "1 29601U 06052A   25351.93181724  .00000075  00000+0  00000+0 0  9992",
        "tle_line2": "2 29601  54.9696 221.1922 0087698  87.4131 273.6858  2.00574024139770"
      },
      "geometry": {
        "type": "Point",
        "coordinates": [
          142.78926414629888,
          -54.40632668616706
        ]
      }
    },
    {
      "type": "Feature",
      "properties": {
        "norad_id": 32260,
        "name": "GPS BIIRM-4 (PRN 15)",
        "group": "gps-ops",
        "lat": 42.017094184904494,
        "lon": 128.4302064129527,
        "alt_km": 19796.294952163524,
        "timestamp": "2025-12-18T19:29:52.803148+00:00",
        "meta_object_name": "GPS BIIRM-4 (PRN 15)",
        "meta_object_id": "2007-047A",
        "meta_epoch": "2025-12-16T05:50:40.680960",
        "meta_mean_motion": 2.00564415,
        "meta_eccentricity": 0.01640743,
        "meta_inclination": 53.9576,
        "meta_ra_of_asc_node": 87.6137,
        "meta_arg_of_pericenter": 85.2864,
        "meta_mean_anomaly": 276.5744,
        "meta_ephemeris_type": 0,
        "meta_classification_type": "U",
        "meta_norad_cat_id": 32260,
        "meta_element_set_no": 999,
        "meta_rev_at_epoch": 13314,
        "meta_bstar": 0,
        "meta_mean_motion_dot": -5.5e-07,
        "meta_mean_motion_ddot": 0,
        "tle_line1": "1 32260U 07047A   25350.24352640 -.00000055  00000+0  00000+0 0  9991",
        "tle_line2": "2 32260  53.9576  87.6137 0164074  85.2864 276.5744  2.00564415133141"
      },
      "geometry": {
        "type": "Point",
        "coordinates": [
          128.4302064129527,
          42.017094184904494
        ]
      }
    },
    {
      "type": "Feature",
      "properties": {
        "norad_id": 32384,
        "name": "GPS BIIRM-5 (PRN 29)",
        "group": "gps-ops",
        "lat": -5.26020466446217,
        "lon": 105.0543937494424,
        "alt_km": 20103.6040075094,
        "timestamp": "2025-12-18T19:29:52.803160+00:00",
        "meta_object_name": "GPS BIIRM-5 (PRN 29)",
        "meta_object_id": "2007-062A",
        "meta_epoch": "2025-12-18T04:16:41.212992",
        "meta_mean_motion": 2.00577654,
        "meta_eccentricity": 0.00322562,
        "meta_inclination": 55.1774,
        "meta_ra_of_asc_node": 281.4278,
        "meta_arg_of_pericenter": 162.2486,
        "meta_mean_anomaly": 286.0474,
        "meta_ephemeris_type": 0,
        "meta_classification_type": "U",
        "meta_norad_cat_id": 32384,
        "meta_element_set_no": 999,
        "meta_rev_at_epoch": 13188,
        "meta_bstar": 0,
        "meta_mean_motion_dot": -4.7e-07,
        "meta_mean_motion_ddot": 0,
        "tle_line1": "1 32384U 07062A   25352.17825478 -.00000047  00000+0  00000+0 0  9994",
        "tle_line2": "2 32384  55.1774 281.4278 0032256 162.2486 286.0474  2.00577654131888"
      },
      "geometry": {
        "type": "Point",
        "coordinates": [
          105.0543937494424,
          -5.26020466446217
        ]
      }
    },
    {
      "type": "Feature",
      "properties": {
        "norad_id": 32711,
        "name": "GPS BIIRM-6 (PRN 07)",
        "group": "gps-ops",
        "lat": 50.38180219919996,
        "lon": -82.57283684598264,
        "alt_km": 20559.74032783525,
        "timestamp": "2025-12-18T19:29:52.803171+00:00",
        "meta_object_name": "GPS BIIRM-6 (PRN 07)",
        "meta_object_id": "2008-012A",
        "meta_epoch": "2025-12-17T15:49:41.763360",
        "meta_mean_motion": 2.00565887,
        "meta_eccentricity": 0.02026439,
        "meta_inclination": 54.4776,
        "meta_ra_of_asc_node": 157.1765,
        "meta_arg_of_pericenter": 245.0018,
        "meta_mean_anomaly": 112.8836,
        "meta_ephemeris_type": 0,
        "meta_classification_type": "U",
        "meta_norad_cat_id": 32711,
        "meta_element_set_no": 999,
        "meta_rev_at_epoch": 13011,
        "meta_bstar": 0,
        "meta_mean_motion_dot": 7.7e-07,
        "meta_mean_motion_ddot": 0,
        "tle_line1": "1 32711U 08012A   25351.65951115  .00000077  00000+0  00000+0 0  9996",
        "tle_line2": "2 32711  54.4776 157.1765 0202643 245.0018 112.8836  2.00565887130114"
      },
      "geometry": {
        "type": "Point",
        "coordinates": [
          -82.57283684598264,
          50.38180219919996
        ]
      }
    },
    {
      "type": "Feature",
      "properties": {
        "norad_id": 35752,
        "name": "GPS BIIRM-8 (PRN 05)",
        "group": "gps-ops",
        "lat": 38.980619220643575,
        "lon": -178.38294275557394,
        "alt_km": 20086.69331581029,
        "timestamp": "2025-12-18T19:29:52.803182+00:00",
        "meta_object_name": "GPS BIIRM-8 (PRN 05)",
        "meta_object_id": "2009-043A",
        "meta_epoch": "2025-12-18T04:21:14.473728",
        "meta_mean_motion": 2.00565462,
        "meta_eccentricity": 0.00516833,
        "meta_inclination": 56.0947,
        "meta_ra_of_asc_node": 34.5684,
        "meta_arg_of_pericenter": 81.8123,
        "meta_mean_anomaly": 312.8651,
        "meta_ephemeris_type": 0,
        "meta_classification_type": "U",
        "meta_norad_cat_id": 35752,
        "meta_element_set_no": 999,
        "meta_rev_at_epoch": 11973,
        "meta_bstar": 0,
        "meta_mean_motion_dot": -7.2e-07,
        "meta_mean_motion_ddot": 0,
        "tle_line1": "1 35752U 09043A   25352.18141752 -.00000072  00000+0  00000+0 0  9992",
        "tle_line2": "2 35752  56.0947  34.5684 0051683  81.8123 312.8651  2.00565462119738"
      },
      "geometry": {
        "type": "Point",
        "coordinates": [
          -178.38294275557394,
          38.980619220643575
        ]
      }
    },
    {
      "type": "Feature",
      "properties": {
        "norad_id": 36585,
        "name": "GPS BIIF-1  (PRN 25)",
        "group": "gps-ops",
        "lat": -48.987704454909185,
        "lon": 91.58854596474261,
        "alt_km": 20523.842432353456,
        "timestamp": "2025-12-18T19:29:52.803193+00:00",
        "meta_object_name": "GPS BIIF-1  (PRN 25)",
        "meta_object_id": "2010-022A",
        "meta_epoch": "2025-12-18T05:21:58.347936",
        "meta_mean_motion": 2.00553561,
        "meta_eccentricity": 0.01263418,
        "meta_inclination": 54.2992,
        "meta_ra_of_asc_node": 215.8527,
        "meta_arg_of_pericenter": 65.143,
        "meta_mean_anomaly": 118.1807,
        "meta_ephemeris_type": 0,
        "meta_classification_type": "U",
        "meta_norad_cat_id": 36585,
        "meta_element_set_no": 999,
        "meta_rev_at_epoch": 11396,
        "meta_bstar": 0,
        "meta_mean_motion_dot": 8.3e-07,
        "meta_mean_motion_ddot": 0,
        "tle_line1": "1 36585U 10022A   25352.22359199  .00000083  00000+0  00000+0 0  9998",
        "tle_line2": "2 36585  54.2992 215.8527 0126341  65.1430 118.1807  2.00553561113969"
      },
      "geometry": {
        "type": "Point",
        "coordinates": [
          91.58854596474261,
          -48.987704454909185
        ]
      }
    }
  ]
}